[{"OBJECT_NAME":"SZ-21 MODULE","OBJECT_ID":"2025-246C","EPOCH":"2026-03-05T11:43:47.657856","MEAN_MOTION":15.68168011,"ECCENTRICITY":0.00014734,"INCLINATION":41.4735,"RA_OF_ASC_NODE":229.2137,"ARG_OF_PERICENTER":290.7926,"MEAN_ANOMALY":69.2758,"EPHEMERIS_TYPE":0,"CLASSIFICATION_TYPE":"U","NORAD_CAT_ID":66515,"ELEMENT_SET_NO":999,"REV_AT_EPOCH":1741,"BSTAR":0.0003691524,"MEAN_MOTION_DOT":0.00042292,"MEAN_MOTION_DDOT":0},{"OBJECT_NAME":"SHENZHOU-22","OBJECT_ID":"2025-272A","EPOCH":"2026-03-05T13:20:20.046912","MEAN_MOTION":15.60433514,"ECCENTRICITY":0.00068649,"INCLINATION":41.4657,"RA_OF_ASC_NODE":233.31,"ARG_OF_PERICENTER":247.1832,"MEAN_ANOMALY":112.8282,"EPHEMERIS_TYPE":0,"CLASSIFICATION_TYPE":"U","NORAD_CAT_ID":66645,"ELEMENT_SET_NO":999,"REV_AT_EPOCH":26752,"BSTAR":0.00023188471,"MEAN_MOTION_DOT":0.00019337,"MEAN_MOTION_DDOT":0},{"OBJECT_NAME":"SOYUZ-MS 28","OBJECT_ID":"2025-275A","EPOCH":"2026-03-05T13:50:21.177600","MEAN_MOTION":15.48460413,"ECCENTRICITY":0.00081549,"INCLINATION":51.6316,"RA_OF_ASC_NODE":92.691,"ARG_OF_PERICENTER":159.9772,"MEAN_ANOMALY":200.1537,"EPHEMERIS_TYPE":0,"CLASSIFICATION_TYPE":"U","NORAD_CAT_ID":66664,"ELEMENT_SET_NO":999,"REV_AT_EPOCH":55452,"BSTAR":0.00016617363,"MEAN_MOTION_DOT":8.552e-5,"MEAN_MOTION_DDOT":0},{"OBJECT_NAME":"DUPLEX","OBJECT_ID":"1998-067XS","EPOCH":"2026-03-05T11:25:18.001920","MEAN_MOTION":15.55906862,"ECCENTRICITY":0.00021186,"INCLINATION":51.6284,"RA_OF_ASC_NODE":90.5226,"ARG_OF_PERICENTER":94.8797,"MEAN_ANOMALY":265.2436,"EPHEMERIS_TYPE":0,"CLASSIFICATION_TYPE":"U","NORAD_CAT_ID":66906,"ELEMENT_SET_NO":999,"REV_AT_EPOCH":1447,"BSTAR":0.00052303292,"MEAN_MOTION_DOT":0.00036643,"MEAN_MOTION_DDOT":0},{"OBJECT_NAME":"ISS OBJECT XT","OBJECT_ID":"1998-067XT","EPOCH":"2026-03-05T10:35:42.312480","MEAN_MOTION":15.67788238,"ECCENTRICITY":0.00046572,"INCLINATION":51.6247,"RA_OF_ASC_NODE":87.2807,"ARG_OF_PERICENTER":52.1849,"MEAN_ANOMALY":307.9568,"EPHEMERIS_TYPE":0,"CLASSIFICATION_TYPE":"U","NORAD_CAT_ID":66907,"ELEMENT_SET_NO":999,"REV_AT_EPOCH":1451,"BSTAR":0.0013790092,"MEAN_MOTION_DOT":0.00157068,"MEAN_MOTION_DDOT":0},{"OBJECT_NAME":"ISS OBJECT XU","OBJECT_ID":"1998-067XU","EPOCH":"2026-03-05T10:33:32.153472","MEAN_MOTION":15.67879938,"ECCENTRICITY":0.00047121,"INCLINATION":51.6241,"RA_OF_ASC_NODE":87.2668,"ARG_OF_PERICENTER":54.5984,"MEAN_ANOMALY":305.5452,"EPHEMERIS_TYPE":0,"CLASSIFICATION_TYPE":"U","NORAD_CAT_ID":66908,"ELEMENT_SET_NO":999,"REV_AT_EPOCH":1451,"BSTAR":0.0013656094,"MEAN_MOTION_DOT":0.00156104,"MEAN_MOTION_DDOT":0},{"OBJECT_NAME":"SILVERSAT","OBJECT_ID":"1998-067XV","EPOCH":"2026-03-05T06:10:54.547392","MEAN_MOTION":15.70352988,"ECCENTRICITY":0.0005476,"INCLINATION":51.6245,"RA_OF_ASC_NODE":87.5489,"ARG_OF_PERICENTER":49.7289,"MEAN_ANOMALY":310.4186,"EPHEMERIS_TYPE":0,"CLASSIFICATION_TYPE":"U","NORAD_CAT_ID":66909,"ELEMENT_SET_NO":999,"REV_AT_EPOCH":1449,"BSTAR":0.001501994,"MEAN_MOTION_DOT":0.00191073,"MEAN_MOTION_DDOT":0},{"OBJECT_NAME":"ISS OBJECT XW","OBJECT_ID":"1998-067XW","EPOCH":"2026-03-05T10:26:00.570912","MEAN_MOTION":15.67264475,"ECCENTRICITY":0.00049981,"INCLINATION":51.6238,"RA_OF_ASC_NODE":87.2274,"ARG_OF_PERICENTER":61.6511,"MEAN_ANOMALY":298.4989,"EPHEMERIS_TYPE":0,"CLASSIFICATION_TYPE":"U","NORAD_CAT_ID":66910,"ELEMENT_SET_NO":999,"REV_AT_EPOCH":1451,"BSTAR":0.0012484063,"MEAN_MOTION_DOT":0.00138836,"MEAN_MOTION_DDOT":0},{"OBJECT_NAME":"ISS OBJECT XX","OBJECT_ID":"1998-067XX","EPOCH":"2026-03-05T10:52:46.066080","MEAN_MOTION":15.73087577,"ECCENTRICITY":0.00070231,"INCLINATION":51.6212,"RA_OF_ASC_NODE":85.8394,"ARG_OF_PERICENTER":57.6386,"MEAN_ANOMALY":302.5291,"EPHEMERIS_TYPE":0,"CLASSIFICATION_TYPE":"U","NORAD_CAT_ID":66911,"ELEMENT_SET_NO":999,"REV_AT_EPOCH":1452,"BSTAR":0.001681468,"MEAN_MOTION_DOT":0.00241775,"MEAN_MOTION_DDOT":0},{"OBJECT_NAME":"ISS OBJECT XY","OBJECT_ID":"1998-067XY","EPOCH":"2026-03-05T08:41:47.497920","MEAN_MOTION":15.62778625,"ECCENTRICITY":0.00030097,"INCLINATION":51.6264,"RA_OF_ASC_NODE":89.0101,"ARG_OF_PERICENTER":64.7698,"MEAN_ANOMALY":295.3608,"EPHEMERIS_TYPE":0,"CLASSIFICATION_TYPE":"U","NORAD_CAT_ID":66912,"ELEMENT_SET_NO":999,"REV_AT_EPOCH":1447,"BSTAR":0.0010307692,"MEAN_MOTION_DOT":0.00095193,"MEAN_MOTION_DDOT":0},{"OBJECT_NAME":"ISS OBJECT XZ","OBJECT_ID":"1998-067XZ","EPOCH":"2026-03-04T07:37:01.846272","MEAN_MOTION":15.5133766,"ECCENTRICITY":0.00094914,"INCLINATION":51.6304,"RA_OF_ASC_NODE":98.5346,"ARG_OF_PERICENTER":167.7937,"MEAN_ANOMALY":192.3284,"EPHEMERIS_TYPE":0,"CLASSIFICATION_TYPE":"U","NORAD_CAT_ID":67683,"ELEMENT_SET_NO":999,"REV_AT_EPOCH":395,"BSTAR":0.00087420501,"MEAN_MOTION_DOT":0.00052289,"MEAN_MOTION_DDOT":0},{"OBJECT_NAME":"GXIBA-1","OBJECT_ID":"1998-067YA","EPOCH":"2026-03-05T10:56:24.455040","MEAN_MOTION":15.53561731,"ECCENTRICITY":0.00109702,"INCLINATION":51.6299,"RA_OF_ASC_NODE":92.6362,"ARG_OF_PERICENTER":161.6042,"MEAN_ANOMALY":198.5348,"EPHEMERIS_TYPE":0,"CLASSIFICATION_TYPE":"U","NORAD_CAT_ID":67684,"ELEMENT_SET_NO":999,"REV_AT_EPOCH":413,"BSTAR":0.001230937,"MEAN_MOTION_DOT":0.00080338,"MEAN_MOTION_DDOT":0},{"OBJECT_NAME":"CORAL","OBJECT_ID":"1998-067YB","EPOCH":"2026-03-05T08:16:08.339808","MEAN_MOTION":15.51741434,"ECCENTRICITY":0.00113259,"INCLINATION":51.6309,"RA_OF_ASC_NODE":93.3938,"ARG_OF_PERICENTER":167.4976,"MEAN_ANOMALY":192.6297,"EPHEMERIS_TYPE":0,"CLASSIFICATION_TYPE":"U","NORAD_CAT_ID":67685,"ELEMENT_SET_NO":999,"REV_AT_EPOCH":411,"BSTAR":0.00077286009,"MEAN_MOTION_DOT":0.00046853,"MEAN_MOTION_DDOT":0},{"OBJECT_NAME":"ISS OBJECT YC","OBJECT_ID":"1998-067YC","EPOCH":"2026-03-05T01:59:19.055616","MEAN_MOTION":15.52157473,"ECCENTRICITY":0.00077438,"INCLINATION":51.6311,"RA_OF_ASC_NODE":94.6478,"ARG_OF_PERICENTER":134.4449,"MEAN_ANOMALY":225.7176,"EPHEMERIS_TYPE":0,"CLASSIFICATION_TYPE":"U","NORAD_CAT_ID":67686,"ELEMENT_SET_NO":999,"REV_AT_EPOCH":407,"BSTAR":0.00090337252,"MEAN_MOTION_DOT":0.00055661,"MEAN_MOTION_DDOT":0},{"OBJECT_NAME":"LEOPARD","OBJECT_ID":"1998-067YD","EPOCH":"2026-03-05T11:23:58.081056","MEAN_MOTION":15.51598294,"ECCENTRICITY":0.00077829,"INCLINATION":51.6307,"RA_OF_ASC_NODE":92.7649,"ARG_OF_PERICENTER":140.1506,"MEAN_ANOMALY":220.0056,"EPHEMERIS_TYPE":0,"CLASSIFICATION_TYPE":"U","NORAD_CAT_ID":67687,"ELEMENT_SET_NO":999,"REV_AT_EPOCH":405,"BSTAR":0.00077252404,"MEAN_MOTION_DOT":0.00046527,"MEAN_MOTION_DDOT":0},{"OBJECT_NAME":"ISS OBJECT YE","OBJECT_ID":"1998-067YE","EPOCH":"2026-03-04T12:07:23.752992","MEAN_MOTION":15.51890022,"ECCENTRICITY":0.00077863,"INCLINATION":51.6315,"RA_OF_ASC_NODE":97.5383,"ARG_OF_PERICENTER":134.731,"MEAN_ANOMALY":225.4314,"EPHEMERIS_TYPE":0,"CLASSIFICATION_TYPE":"U","NORAD_CAT_ID":67688,"ELEMENT_SET_NO":999,"REV_AT_EPOCH":390,"BSTAR":0.0010599088,"MEAN_MOTION_DOT":0.00064836,"MEAN_MOTION_DDOT":0}]
